EUTELSAT 8 WEST B       
1 40875U 15039B   25325.08672359 -.00000043  00000+0  00000+0 0  9995
2 40875   0.0667 353.1487 0004190 250.2342 200.2055  1.00272594 37574
EUTELSAT 9B             
1 41310U 16005A   25325.05878022  .00000084  00000+0  00000+0 0  9990
2 41310   0.0763  79.1023 0004300 180.6951 190.6840  1.00272705 36030
EUTELSAT 65 WEST A      
1 41382U 16014A   25325.07545684 -.00000255  00000+0  00000+0 0  9997
2 41382   0.0568  15.4861 0002461 232.3867 134.4534  1.00271256 35442
EUTELSAT 117 WEST B     
1 41589U 16038B   25325.17614161  .00000010  00000+0  00000+0 0  9998
2 41589   0.0170 143.6388 0000115  90.9932 132.2417  1.00269777 34577
EUTELSAT 172B           
1 42741U 17029B   25325.15878207  .00000017  00000+0  00000+0 0  9998
2 42741   0.0419 138.4849 0000240 306.5450 204.5642  1.00272690 31644
EUTELSAT 7C             
1 44334U 19034B   25325.05878022  .00000070  00000+0  00000+0 0  9999
2 44334   0.0753 185.2458 0002941  33.7290 229.5531  1.00269966  4749
EUTELSAT 5 WEST B       
1 44624U 19067A   25325.08733024 -.00000020  00000+0  00000+0 0  9998
2 44624   0.0704 328.6816 0003111 270.6985 207.4335  1.00271267 22352
EUTELSAT KONNECT        
1 45027U 20005B   25324.80444022  .00000072  00000+0  00000+0 0  9992
2 45027   0.0651  99.4218 0001234 187.8334  69.6243  1.00274048 22234
